OBJECT_NAME,OBJECT_ID,EPOCH,MEAN_MOTION,ECCENTRICITY,INCLINATION,RA_OF_ASC_NODE,ARG_OF_PERICENTER,MEAN_ANOMALY,EPHEMERIS_TYPE,CLASSIFICATION_TYPE,NORAD_CAT_ID,ELEMENT_SET_NO,REV_AT_EPOCH,BSTAR,MEAN_MOTION_DOT,MEAN_MOTION_DDOT
WGS F2 (USA 204),2009-017A,2024-01-20T11:20:12.229728,1.00270284,.0000568,0.0259,65.6052,235.3248,45.9577,0,U,34713,999,3680,0,.72E-6,0
SES-7 (PROTOSTAR 2),2009-027A,2024-01-20T12:19:42.720960,1.00271371,.0002307,0.0114,359.2895,294.4019,118.8537,0,U,34941,999,5380,0,-.341E-5,0
MEASAT-3A,2009-032A,2024-01-20T08:03:42.803712,1.00271008,.000284,0.0508,222.1902,43.8893,65.5431,0,U,35362,999,5343,0,-.237E-5,0
GOES 14,2009-033A,2024-01-20T14:36:36.324000,1.00272380,.0000598,0.0712,227.7070,97.7744,264.5781,0,U,35491,999,5330,0,-.61E-6,0
FM-5,2009-034A,2024-01-20T10:39:06.073920,1.00272175,.000108,0.0150,8.7024,197.2395,346.9883,0,U,35493,999,3783,0,-.195E-5,0
ASIASAT 5,2009-042A,2024-01-20T13:10:32.836224,1.00270466,.0001454,0.0151,71.3705,239.3028,106.8843,0,U,35696,999,5289,0,-.303E-5,0
JCSAT-12 (JCSAT-RA),2009-044A,2024-01-20T12:50:42.624384,1.00270400,.0000286,0.0338,93.5174,297.6058,53.0166,0,U,35755,999,5279,0,-.324E-5,0
OPTUS D3,2009-044B,2024-01-20T15:09:25.575264,1.00271658,.0004156,0.0302,3.4550,308.6548,190.7338,0,U,35756,999,5275,0,-.143E-5,0
NIMIQ 5,2009-050A,2024-01-20T14:59:41.919936,1.00270138,.0002987,0.0276,62.5672,232.9784,336.1802,0,U,35873,999,5254,0,-.252E-5,0
AMAZONAS 2,2009-054A,2024-01-20T10:54:44.745984,1.00272892,.0001604,0.0338,188.2286,100.0405,293.7141,0,U,35942,999,5237,0,-.278E-5,0
COMSATBW-1,2009-054B,2024-01-20T11:21:49.974048,1.00272505,.00031,0.0392,93.8563,206.6313,52.3029,0,U,35943,999,5248,0,.29E-6,0
NSS-12,2009-058A,2024-01-20T11:20:04.711200,1.00272587,.000295,0.0137,348.0538,312.3325,45.9515,0,U,36032,999,5210,0,.76E-6,0
THOR 6,2009-058B,2024-01-20T09:20:24.288864,1.00271224,.0002257,0.0156,135.9062,184.0200,298.5568,0,U,36033,999,5219,0,-.6E-7,0
INTELSAT 14 (IS-14),2009-064A,2024-01-20T09:07:44.893344,1.00269163,.0002628,0.0110,354.4575,314.8364,261.8612,0,U,36097,999,5179,0,-.269E-5,0
EUTELSAT 36B,2009-065A,2024-01-20T11:14:03.809760,1.00269291,.0005492,0.0657,358.5606,304.8552,20.3059,0,U,36101,999,5190,0,.16E-5,0
INTELSAT 15 (IS-15),2009-067A,2024-01-20T13:00:32.582592,1.00271260,.0002478,0.0140,86.1070,208.6692,104.9114,0,U,36106,999,3241,0,-.181E-5,0
WGS F3 (USA 211),2009-068A,2024-01-20T10:51:30.432384,1.00272184,.0000757,0.1188,94.0823,204.1125,301.1571,0,U,36108,999,3779,0,-.264E-5,0
DIRECTV 12,2009-075A,2024-01-20T14:43:24.368736,1.00274905,.0000703,0.0197,145.9532,278.5645,173.0699,0,U,36131,999,3775,0,-.99E-6,0
BEIDOU-2 G1,2010-001A,2024-01-20T13:27:08.738784,1.00274132,.0005179,2.2956,55.7382,280.3245,125.5779,0,U,36287,999,5136,0,-.278E-5,0
SDO,2010-005A,2024-01-20T05:25:11.561664,1.00268559,.0002552,32.8180,99.9274,210.3612,147.6959,0,U,36395,999,5124,0,-.95E-6,0
INTELSAT 16 (IS-16),2010-006A,2024-01-20T10:42:52.052256,1.00271604,.0002263,0.0161,72.8240,226.4871,264.5036,0,U,36397,999,5084,0,-.24E-5,0
ECHOSTAR 14,2010-010A,2024-01-20T14:21:38.934720,1.00271552,.000207,0.0225,58.0823,225.1971,292.6985,0,U,36499,999,3774,0,.5E-7,0
SES-1,2010-016A,2024-01-20T14:45:06.279264,1.00270845,.000256,0.0348,303.1473,352.6707,303.9174,0,U,36516,999,5022,0,-.11E-5,0
ASTRA 3B,2010-021A,2024-01-20T06:01:09.448320,1.00270123,.0001806,0.0456,16.2711,298.3027,278.3146,0,U,36581,999,5006,0,.141E-5,0
BEIDOU-2 G3,2010-024A,2024-01-20T11:26:35.687616,1.00274261,.0007233,2.4755,59.3285,318.5063,352.6485,0,U,36590,999,4995,0,-.133E-5,0
