WGS F2 (USA 204)        
1 34713U 09017A   24020.47236377  .00000072  00000+0  00000+0 0  9999
2 34713   0.0259  65.6052 0000568 235.3248  45.9577  1.00270284 36804
SES-7 (PROTOSTAR 2)     
1 34941U 09027A   24020.51368890 -.00000341  00000+0  00000+0 0  9994
2 34941   0.0114 359.2895 0002307 294.4019 118.8537  1.00271371 53802
MEASAT-3A               
1 35362U 09032A   24020.33591208 -.00000237  00000+0  00000+0 0  9993
2 35362   0.0508 222.1902 0002840  43.8893  65.5431  1.00271008 53439
GOES 14                 
1 35491U 09033A   24020.60875375 -.00000061  00000+0  00000+0 0  9992
2 35491   0.0712 227.7070 0000598  97.7744 264.5781  1.00272380 53306
FM-5                    
1 35493U 09034A   24020.44382030 -.00000195  00000+0  00000+0 0  9996
2 35493   0.0150   8.7024 0001080 197.2395 346.9883  1.00272175 37835
ASIASAT 5               
1 35696U 09042A   24020.54899116 -.00000303  00000+0  00000+0 0  9990
2 35696   0.0151  71.3705 0001454 239.3028 106.8843  1.00270466 52892
JCSAT-12 (JCSAT-RA)     
1 35755U 09044A   24020.53521556 -.00000324  00000+0  00000+0 0  9990
2 35755   0.0338  93.5174 0000286 297.6058  53.0166  1.00270400 52791
OPTUS D3                
1 35756U 09044B   24020.63154601 -.00000143  00000+0  00000+0 0  9994
2 35756   0.0302   3.4550 0004156 308.6548 190.7338  1.00271658 52750
NIMIQ 5                 
1 35873U 09050A   24020.62479074 -.00000252  00000+0  00000+0 0  9995
2 35873   0.0276  62.5672 0002987 232.9784 336.1802  1.00270138 52543
AMAZONAS 2              
1 35942U 09054A   24020.45468456 -.00000278  00000+0  00000+0 0  9997
2 35942   0.0338 188.2286 0001604 100.0405 293.7141  1.00272892 52370
COMSATBW-1              
1 35943U 09054B   24020.47349507  .00000029  00000+0  00000+0 0  9998
2 35943   0.0392  93.8563 0003100 206.6313  52.3029  1.00272505 52481
NSS-12                  
1 36032U 09058A   24020.47227675  .00000076  00000+0  00000+0 0  9995
2 36032   0.0137 348.0538 0002950 312.3325  45.9515  1.00272587 52102
THOR 6                  
1 36033U 09058B   24020.38917001 -.00000006  00000+0  00000+0 0  9999
2 36033   0.0156 135.9062 0002257 184.0200 298.5568  1.00271224 52195
INTELSAT 14 (IS-14)     
1 36097U 09064A   24020.38038071 -.00000269  00000+0  00000+0 0  9998
2 36097   0.0110 354.4575 0002628 314.8364 261.8612  1.00269163 51795
EUTELSAT 36B            
1 36101U 09065A   24020.46809965  .00000160  00000+0  00000+0 0  9991
2 36101   0.0657 358.5606 0005492 304.8552  20.3059  1.00269291 51905
INTELSAT 15 (IS-15)     
1 36106U 09067A   24020.54204378 -.00000181  00000+0  00000+0 0  9998
2 36106   0.0140  86.1070 0002478 208.6692 104.9114  1.00271260 32418
WGS F3 (USA 211)        
1 36108U 09068A   24020.45243556 -.00000264  00000+0  00000+0 0  9994
2 36108   0.1188  94.0823 0000757 204.1125 301.1571  1.00272184 37797
DIRECTV 12              
1 36131U 09075A   24020.61347649 -.00000099  00000+0  00000+0 0  9990
2 36131   0.0197 145.9532 0000703 278.5645 173.0699  1.00274905 37754
BEIDOU-2 G1             
1 36287U 10001A   24020.56051781 -.00000278  00000+0  00000+0 0  9995
2 36287   2.2956  55.7382 0005179 280.3245 125.5779  1.00274132 51369
SDO                     
1 36395U 10005A   24020.22582826 -.00000095  00000+0  00000+0 0  9998
2 36395  32.8180  99.9274 0002552 210.3612 147.6959  1.00268559 51248
INTELSAT 16 (IS-16)     
1 36397U 10006A   24020.44643579 -.00000240  00000+0  00000+0 0  9990
2 36397   0.0161  72.8240 0002263 226.4871 264.5036  1.00271604 50848
ECHOSTAR 14             
1 36499U 10010A   24020.59836730  .00000005  00000+0  00000+0 0  9995
2 36499   0.0225  58.0823 0002070 225.1971 292.6985  1.00271552 37749
SES-1                   
1 36516U 10016A   24020.61465601 -.00000110  00000+0  00000+0 0  9997
2 36516   0.0348 303.1473 0002560 352.6707 303.9174  1.00270845 50225
ASTRA 3B                
1 36581U 10021A   24020.25080380  .00000141  00000+0  00000+0 0  9995
2 36581   0.0456  16.2711 0001806 298.3027 278.3146  1.00270123 50062
BEIDOU-2 G3             
1 36590U 10024A   24020.47680194 -.00000133  00000+0  00000+0 0  9993
2 36590   2.4755  59.3285 0007233 318.5063 352.6485  1.00274261 49954
